1 08820U 76039A   03313.89925329 -.00000007  00000-0  10000-3 0  9857
2 08820 109.8276 231.4746 0044437 270.3063  89.2449  6.38664624386360
